SWARM A                 
1 39452U 13067B   26166.47755372  .00009228  00000+0  15874-3 0  9999
2 39452  87.3329  56.8775 0003010  94.7541 265.4064 15.50925584705989
SWARM C                 
1 39453U 13067C   26166.60648586  .00007247  00000+0  12450-3 0  9999
2 39453  87.3328  55.4106 0002980  92.7589 267.4013 15.50925282705966
BRITE-CA1 (TORONTO)     
1 40020U 14033L   26166.33917076  .00000597  00000+0  97618-4 0  9999
2 40020  97.9736 295.3012 0077245 283.0419  76.2174 14.72674284641949
OCO 2                   
1 40059U 14035A   26166.57608113  .00000338  00000+0  85127-4 0  9993
2 40059  98.2018 107.8936 0001500  85.7408 274.3962 14.57110069635810
BRITE-PL2 (HEWELIUSZ)   
1 40119U 14049B   26166.56557141  .00001402  00000+0  13481-3 0  9994
2 40119  97.9096 278.5530 0015233 113.2986 246.9839 14.94588461641205
MMS 1                   
1 40482U 15011A   26166.66667824 -.00000673  00000+0  00000+0 0  9997
2 40482  72.1894 348.7771 8322141 167.4046 143.3314  0.28354798  1373
MMS 2                   
1 40483U 15011B   26166.66667824 -.00000673  00000+0  00000+0 0  9998
2 40483  72.1899 348.7792 8322919 167.4091 143.3269  0.28354871  1376
MMS 3                   
1 40484U 15011C   26166.66667824 -.00000673  00000+0  00000+0 0  9999
2 40484  72.1891 348.7795 8321711 167.4114 143.3111  0.28354822  1379
MMS 4                   
1 40485U 15011D   26166.66667824 -.00000673  00000+0  00000+0 0  9990
2 40485  72.1891 348.7795 8321711 167.4114 143.3111  0.28354822  1370
ASTROSAT                
1 40930U 15052A   26166.54418907  .00001433  00000+0  92749-4 0  9993
2 40930   5.9956 167.1769 0007813   7.2508 352.7733 14.82504818579585
DAMPE                   
1 41173U 15078A   26166.59957410  .00001454  00000+0  51373-4 0  9994
2 41173  97.4550 172.0584 0013806  82.0230 278.2577 15.30782803584303
PISAT                   
1 41784U 16059B   26166.57735116  .00000732  00000+0  13228-3 0  9991
2 41784  97.8179 167.0993 0028241 208.0527 151.9159 14.68981043519508
HXMT (HUIYAN)           
1 42758U 17034A   26166.55566322  .00002553  00000+0  13187-3 0  9993
2 42758  43.0126 192.1261 0030429 136.4775 223.8482 15.18469377497412
FLYING LAPTOP           
1 42831U 17042G   26166.58573528  .00003288  00000+0  26018-3 0  9996
2 42831  97.4673 322.1799 0019504 126.8484 233.4533 15.01137329486217
ZHANGHENG 1-01 (CSES-1) 
1 43194U 18015C   26166.62566927  .00005803  00000+0  26563-3 0  9990
2 43194  97.6864 332.2518 0017033 272.2949  87.6335 15.20794086464408
SALSAT                  
1 46495U 20068K   26166.57567589  .00006463  00000+0  22682-3 0  9998
2 46495  97.8844 169.5420 0008147 315.1312  44.9267 15.29779983315116
IXPE                    
1 49954U 21121A   26166.66667824  .00009872  00000+0  53054-3 0  9999
2 49954   0.2308 329.1396 0007475  56.8726 247.7217 15.10238504  5336
SMILE                   
1 69123U 26109A   26144.65318427 -.00001976  00000+0 -42379-3 0  9994
2 69123  70.0007 229.2745 0009123 259.5159 100.4951 14.57062785   802
